ONEWEB-0144             
1 47290U 20100AJ  24255.62011778  .00000467  00000+0  12634-2 0  9999
2 47290  87.8886 118.8273 0002081  81.3091 278.8274 13.12443819180151
ONEWEB-0145             
1 47291U 20100AK  24255.59091229 -.00000131  00000+0 -40005-3 0  9999
2 47291  87.8885 118.8576 0001861  81.4851 278.6488 13.12442602180342
ONEWEB-0146             
1 47292U 20100AL  24255.58765903 -.00000237  00000+0 -69526-3 0  9992
2 47292  87.8886 118.8425 0001297  77.4519 282.6755 13.12443152180259
ONEWEB-0115             
1 48042U 21025A   24255.55088526  .00001365  00000+0  37019-2 0  9991
2 48042  87.8844  88.3069 0001601  88.3992 271.7321 13.13479867169109
ONEWEB-0152             
1 48043U 21025B   24255.56359374 -.00000271  00000+0 -77807-3 0  9992
2 48043  87.8851  88.3052 0001603  89.7489 270.3824 13.13466477169069
ONEWEB-0153             
1 48044U 21025C   24255.54138775  .00000199  00000+0  51077-3 0  9999
2 48044  87.8855  88.2999 0001736  86.5727 273.5600 13.13468278169057
ONEWEB-0154             
1 48045U 21025D   24255.53822162  .00000264  00000+0  68884-3 0  9996
2 48045  87.8852  88.3092 0001650  89.1443 270.9875 13.13466742169014
